KOREASAT 5A             
1 42984U 17067A   20057.52299066 -.00000365  00000-0  00000-0 0  9996
2 42984   0.0175 125.4662 0001115 173.7077 158.0569  1.00271782  8446
ALCOMSAT 1              
1 43039U 17078A   20057.42362894 -.00000193  00000-0  00000-0 0  9998
2 43039   0.0453  33.4294 0001866 308.5127 301.5036  1.00271345  8206
SBIRS GEO-3 (USA 282)   
1 43162U 18009A   20057.45634240 -.00000298  00000-0  00000+0 0  9995
2 43162   5.1691 317.4174 0001564  20.3116 121.2855  1.00271925  7745
AL YAH 3                
1 43174U 18012A   20057.35279337 -.00000163  00000-0  00000-0 0  9995
2 43174   0.0207 154.0177 0001964 186.3474 282.1869  1.00267605  7750
SES-14                  
1 43175U 18012B   20057.51924277 -.00000285  00000-0  00000-0 0  9999
2 43175   0.0166 148.5971 0000907 177.4258 329.2326  1.00268446  7971
GOES 17                 
1 43226U 18022A   20057.41612428  .00000091  00000-0  00000+0 0  9991
2 43226   0.0369 349.9887 0000399  18.1053 160.1983  1.00272370  7348
HISPASAT 30W-6          
1 43228U 18023A   20057.42258209 -.00000223  00000-0  00000-0 0  9997
2 43228   0.0454  52.9376 0004763 309.2838 275.5879  1.00271627  7386
SUPERBIRD 8             
1 43271U 18033A   20057.45070970 -.00000099  00000-0  00000-0 0  9997
2 43271   0.0215 215.8198 0000928 139.8725 124.2982  1.00272075  6968
HYLAS 4                 
1 43272U 18033B   20057.23938417 -.00000241  00000-0  00000+0 0  9991
2 43272   0.0655 120.8491 0001780  51.1903  36.1447  1.00271861  6980
IRNSS-1I                
1 43286U 18035A   20056.75658716  .00000095  00000-0  00000+0 0  9991
2 43286  28.9346 111.3292 0021267 187.1111 184.0323  1.00273633  6972
USA 283                 
1 43339U 18036A   20056.48949567 -.00000327  00000-0  00000+0 0  9997
2 43339   0.0038 166.9855 0000393 249.7988  48.3088  1.00271057  2216
COSMOS 2526             
1 43432U 18037A   20057.47099076 -.00000351  00000-0  00000-0 0  9991
2 43432   0.0209 119.6447 0000798 225.7482 107.9873  1.00269927  6888
APSTAR 6C               
1 43450U 18041A   20057.59888593 -.00000324  00000-0  00000-0 0  9999
2 43450   0.0516 283.3928 0002030 165.7856  56.3273  1.00272083  6755
BANGABANDHUSAT-1        
1 43463U 18044A   20057.02164578 -.00000371  00000-0  00000-0 0  9996
2 43463   0.0241 243.5233 0001683 124.0266 274.6430  1.00269651  6619
SES-12                  
1 43488U 18049A   20056.69130719 -.00000278  00000-0  00000-0 0  9996
2 43488   0.0258  81.3849 0002182 209.1648 208.3068  1.00271335  6331
FENGYUN 2H              
1 43491U 18050A   20057.58798144 -.00000136  00000-0  00000-0 0  9996
2 43491   0.9221 277.2234 0001615 206.1054 323.5663  1.00271810  6425
BEIDOU IGSO-7           
1 43539U 18057A   20057.47998672 -.00000134  00000-0  00000-0 0  9990
2 43539  55.0437 183.2704 0025803 198.5629  57.1183  1.00250966  6069
TELSTAR 19V             
1 43562U 18059A   20057.41603941 -.00000286  00000-0  00000-0 0  9992
2 43562   0.0100 156.9936 0000559 117.8763 327.6160  1.00271683  6069
TELKOM 4 (MERAH PUTIH)  
1 43587U 18064A   20057.45014866 -.00000350  00000-0  00000+0 0  9992
2 43587   0.0102 153.7189 0001214 212.0359  60.0169  1.00271473  5772
TELSTAR 18V (APSTAR 5C) 
1 43611U 18069A   20057.45616793 -.00000300  00000-0  00000+0 0  9997
2 43611   0.0099 147.7309 0001806 190.3029 119.9172  1.00271840  5520
AZERSPACE 2 (IS-38)     
1 43632U 18074A   20056.79035564  .00000128  00000-0  00000-0 0  9991
2 43632   0.0113 137.2369 0001277 203.1253 144.3552  1.00272262  5404
HORIZONS 3E             
1 43633U 18074B   20057.24762837 -.00000038  00000-0  00000-0 0  9994
2 43633   0.0273 275.9512 0000401 353.5690 144.1598  1.00272573  5251
AEHF-4 (USA 288)        
1 43651U 18079A   20057.47047462  .00000122  00000-0  00000-0 0  9997
2 43651   4.0988 311.1900 0003195  17.4881 206.3975  1.00269635  5203
BEIDOU-3 G1             
1 43683U 18085A   20057.23042995 -.00000253  00000-0  00000+0 0  9994
2 43683   2.0151 260.5900 0000921 123.5227 358.9430  1.00273209  4977
GSAT-29                 
1 43698U 18089A   20057.43950588  .00000078  00000-0  00000+0 0  9996
2 43698   0.0354 274.6424 0002135  34.6556  59.6634  1.00273683  4730
ES'HAIL 2               
1 43700U 18090A   20056.93126935  .00000136  00000-0  00000-0 0  9993
2 43700   0.0220 152.7066 0002223 214.2496 149.3713  1.00272454  4584
GEO-KOMPSAT-2A          
1 43823U 18100A   20057.31065840 -.00000351  00000-0  00000+0 0  9990
2 43823   0.0398 310.1665 0001253  98.4060 347.1170  1.00270934  4577
GSAT-11                 
1 43824U 18100B   20057.51513944 -.00000084  00000-0  00000-0 0  9990
2 43824   0.1164 275.8334 0005522 153.7143 345.7159  1.00271938  4420
GSAT-7A                 
1 43864U 18105A   20057.44116337  .00000020  00000-0  00000+0 0  9994
2 43864   0.0709 279.5128 0001317  30.9676  66.8343  1.00273383  4382
COSMOS 2533             
1 43867U 18107A   20057.44255913 -.00000045  00000-0  00000+0 0  9991
2 43867   0.0143 124.1848 0000168   8.3627 252.4985  1.00272822  4347
TJS-3                   
1 43874U 18110A   20057.60864128 -.00000004  00000-0  00000-0 0  9991
2 43874   0.0389 247.5013 0004065 352.2181 308.2719  1.00272012  4332
TJS-3 AKM               
1 43917U 18110C   20057.24233332  .00000050  00000-0  00000-0 0  9996
2 43917   0.3719 273.1642 0001770  46.1474 342.5312  1.00264767  4256
CHINASAT 2D (ZX 2D)     
1 43920U 19001A   20057.59810081 -.00000343  00000-0  00000-0 0  9996
2 43920   0.0457 281.4003 0001197  72.1800 147.6329  1.00273226  4278
HELLAS-SAT 4 & SGS-1    
1 44034U 19007A   20057.22106709  .00000145  00000-0  00000-0 0  9993
2 44034   0.0685 124.8157 0003583  26.3454 122.9091  1.00272705  4302
GSAT-31                 
1 44035U 19007B   20057.47405149 -.00000171  00000-0  00000-0 0  9991
2 44035   0.0470 277.9037 0005716 147.0500 344.4417  1.00271491  3881
NUSANTARA SATU          
1 44048U 19009A   20057.48014455 -.00000241  00000-0  00000+0 0  9991
2 44048   0.0161 114.8597 0001903 224.0001 135.7662  1.00271280  3685
CHINASAT 6C (ZX 6C)     
1 44067U 19012A   20057.59810081 -.00000343  00000-0  99999+0 0  9995
2 44067   0.0671 267.4768 0002593  25.3617 208.3678  1.00271168  3643
WGS 10 (USA 291)        
1 44071U 19014A   20057.51252235  .00000097  00000-0  00000-0 0  9996
2 44071   0.1101 100.4837 0001146 288.3049  12.5666  0.99298916  3541
TIANLIAN 2-01           
1 44076U 19017A   20057.58806868 -.00000143  00000-0  00000-0 0  9991
2 44076   2.2699 287.4577 0029390 209.5436 310.5383  1.00274452  3521
ARABSAT-6A              
1 44186U 19021A   20056.71686635  .00000145  00000-0  00000-0 0  9991
2 44186   0.0633 317.5977 0003731  11.6647 114.2756  1.00273128  3109
BEIDOU-3 IGSO-1         
1 44204U 19023A   20057.34653981 -.00000181  00000-0  10000-3 0  9997
2 44204  55.3358  62.1488 0014549 198.5706 134.8079  1.00270470  3267
BEIDOU-2 G8             
1 44231U 19027A   20055.70466111 -.00000148  00000-0  00000+0 0  9994
2 44231   1.2413 295.1856 0002286  95.8820  96.6045  1.00271965  2983
YAMAL 601               
1 44307U 19031A   20057.14656795  .00000112  00000-0  00000-0 0  9993
2 44307   0.0111 137.8551 0001784 201.7950 277.5443  1.00272300  2860
AT&T T-16               
1 44333U 19034A   20057.54702255 -.00000121  00000-0  00000-0 0  9993
2 44333   0.0129 120.9904 0000527 344.3352 146.5679  1.00271427  2570
EUTELSAT 7C             
1 44334U 19034B   20057.49667296  .00000041  00000-0  00000-0 0  9993
2 44334   0.0448 280.9943 0003790 114.7661 305.7973  1.00270245  3026
BEIDOU-3 IGSO-2         
1 44337U 19035A   20057.47630703 -.00000132  00000-0  00000-0 0  9990
2 44337  55.0634 179.3288 0012558 185.8796  69.9655  1.00273284  2604
COSMOS 2539             
1 44457U 19048A   20057.35916160  .00000074  00000-0  00000+0 0  9991
2 44457   0.0131 133.6455 0000227  36.1765 127.1172  1.00274374  2132
EDRS-C                  
1 44475U 19049A   20056.54702096  .00000145  00000-0  00000+0 0  9992
2 44475   0.0226 105.1100 0000040 213.1518  64.6942  1.00274632  2096
INTELSAT 39 (IS-39)     
1 44476U 19049B   20057.30882538  .00000026  00000-0  00000-0 0  9997
2 44476   0.0203 127.0701 0000470 304.2953 257.3468  1.00271759  2095
AMOS-17                 
1 44479U 19050A   20057.35605032  .00000103  00000-0  00000-0 0  9995
2 44479   0.0172 127.1901 0001277 297.5856 236.0506  1.00274664  2116
AEHF-5 (USA 292)        
1 44481U 19051A   20057.38729848 -.00000167  00000-0  00000+0 0  9994
2 44481   6.2049 309.2003 0002995  20.1172 231.6077  1.00272071  2175
EUTELSAT 5 WEST B       
1 44624U 19067A   20056.99687076 -.00000050  00000-0  00000-0 0  9994
2 44624   0.0269  45.8482 0002125 354.7370 108.5660  1.00272927  1365
TJS-4                   
1 44637U 19070A   20057.47405149 -.00000176  00000-0  00000-0 0  9994
2 44637   0.0297 135.3691 0005678 218.7143  55.8334  1.00273613  1477
BEIDOU-3 IGSO-3         
1 44709U 19073A   20056.59224087 -.00000141  00000-0  00000+0 0  9990
2 44709  58.5576 305.0542 0023605 180.5596 349.3440  1.00266534  1354
TIBA-1                  
1 44800U 19080A   20056.72132683  .00000147  00000-0  00000-0 0  9991
2 44800   0.0188 315.1540 0001666  16.6572 118.3945  1.00276107   982
INMARSAT GX5            
1 44801U 19080B   20057.58894103 -.00000178  00000-0  00000-0 0  9994
2 44801   0.0662 273.7131 0004482 105.3819  72.5801  1.00270871  1002
JCSAT-18 (KACIFIC 1)    
1 44868U 19091A   20056.95604436 -.00000210  00000-0  00000-0 0  9994
2 44868   0.0209 131.3297 0001090 199.8002 318.3229  1.00267886   925
ELEKTRO-L 3             
1 44903U 19095A   20057.36034935 -.00000066  00000-0  00000-0 0  9994
2 44903   0.4286 282.4418 0003659  49.5975 119.0998  1.00273381   645
SHIJIAN-20 (SJ-20)      
1 44910U 19097A   20057.54733597 -.00000368  00000-0  00000+0 0  9998
2 44910   0.0371 341.3170 0008376 342.8413 143.9460  1.00276121   602
